{"epoch":1784710044,"count":18256,"objects":[{"id":"67143","name":"KUIPER-00191","type":"PAYLOAD","l1":"1 67143U 25301L   26202.25872731  .00001507  00000-0  22661-3 0  9992","l2":"2 67143  51.8998 202.5073 0000413  60.5018 299.5986 14.79936121 33434"},{"id":"67144","name":"KUIPER-00196","type":"PAYLOAD","l1":"1 67144U 25301M   26202.07814474  .00001483  00000-0  24234-3 0  9994","l2":"2 67144  51.8981 159.8316 0001621  17.0924 343.0091 14.76354709 33981"},{"id":"67145","name":"KUIPER-00204","type":"PAYLOAD","l1":"1 67145U 25301N   26202.18707800  .00001898  00000-0  27786-3 0  9996","l2":"2 67145  51.9008 175.3085 0000706  35.9441 324.1569 14.79942893 33895"},{"id":"67146","name":"KUIPER-00210","type":"PAYLOAD","l1":"1 67146U 25301P   26202.29244761  .00001608  00000-0  23974-3 0  9995","l2":"2 67146  51.8982 202.3084 0000426  52.6934 307.4067 14.79949050 33583"},{"id":"67147","name":"KUIPER-00221","type":"PAYLOAD","l1":"1 67147U 25301Q   26202.31814568  .00001578  00000-0  23593-3 0  9990","l2":"2 67147  51.9010 209.7223 0000434  47.2649 312.8350 14.79941584 33315"},{"id":"67148","name":"KUIPER-00232","type":"PAYLOAD","l1":"1 67148U 25301R   26202.16552245  .00001697  00000-0  25158-3 0  9996","l2":"2 67148  51.8985 195.4186 0000410  46.6462 313.4535 14.79935130 33496"},{"id":"67149","name":"KUIPER-00241","type":"PAYLOAD","l1":"1 67149U 25301S   26202.05344554  .00001509  00000-0  22695-3 0  9992","l2":"2 67149  51.9015 205.9155 0000470  73.7850 286.3164 14.79929614 33679"},{"id":"67150","name":"KUIPER-00245","type":"PAYLOAD","l1":"1 67150U 25301T   26202.24793975  .00001594  00000-0  23796-3 0  9997","l2":"2 67150  51.9018 212.5672 0000316  61.1676 298.9318 14.79938929 33262"},{"id":"67151","name":"KUIPER-00246","type":"PAYLOAD","l1":"1 67151U 25301U   26202.36537488  .00001707  00000-0  25281-3 0  9993","l2":"2 67151  51.8997 196.9970 0000390  66.3298 293.7705 14.79948270 33514"},{"id":"67152","name":"KUIPER-00247","type":"PAYLOAD","l1":"1 67152U 25301V   26202.37619626  .00001737  00000-0  25671-3 0  9996","l2":"2 67152  51.8963 186.9183 0000390  73.4804 286.6201 14.79943066 33638"},{"id":"67153","name":"KUIPER-00248","type":"PAYLOAD","l1":"1 67153U 25301W   26202.59754781  .00002104  00000-0  30503-3 0  9992","l2":"2 67153  51.8982 168.5700 0000835  76.4157 283.6898 14.79922074 34073"},{"id":"67154","name":"KUIPER-00249","type":"PAYLOAD","l1":"1 67154U 25301X   26202.24377920  .00004706  00000-0  64538-3 0  9996","l2":"2 67154  51.8989 185.0643 0000558  53.8102 306.2912 14.79964237 33640"},{"id":"67155","name":"KUIPER-00250","type":"PAYLOAD","l1":"1 67155U 25301Y   26202.39648188  .00001717  00000-0  25421-3 0  9997","l2":"2 67155  51.8973 199.3436 0000494  64.1362 295.9651 14.79935392 33491"},{"id":"67156","name":"KUIPER-00251","type":"PAYLOAD","l1":"1 67156U 25301Z   26202.20739445  .00001763  00000-0  26016-3 0  9997","l2":"2 67156  51.8993 187.7490 0000704  40.2560 319.8455 14.79941294 33793"},{"id":"67157","name":"KUIPER-00252","type":"PAYLOAD","l1":"1 67157U 25301AA  26202.13715575  .00001788  00000-0  26336-3 0  9990","l2":"2 67157  51.8994 190.5100 0000508  52.5292 307.5716 14.79941870 33564"},{"id":"67158","name":"KUIPER-00261","type":"PAYLOAD","l1":"1 67158U 25301AB  26202.29518889  .00001642  00000-0  24434-3 0  9993","l2":"2 67158  51.9014 199.8659 0000423  57.7781 302.3223 14.79932459 33442"}]}