{"fetched_at":"2026-07-22T07:09:20.374Z","source":"https://celestrak.org/NORAD/elements/gp.php?GROUP=kuiper&FORMAT=JSON","constellation":"kuiper","records":[{"OBJECT_NAME":"KUIPER-00191","OBJECT_ID":"2025-301L","EPOCH":"2026-07-21T06:12:34.039584","CLASSIFICATION_TYPE":"U","MEAN_MOTION":14.79936121,"ECCENTRICITY":0.00004133,"INCLINATION":51.8998,"RA_OF_ASC_NODE":202.5073,"ARG_OF_PERICENTER":60.5018,"MEAN_ANOMALY":299.5986,"EPHEMERIS_TYPE":0,"NORAD_CAT_ID":67143,"ELEMENT_SET_NO":999,"REV_AT_EPOCH":3343,"BSTAR":0.00022661351,"MEAN_MOTION_DOT":0.00001507,"MEAN_MOTION_DDOT":0},{"OBJECT_NAME":"KUIPER-00196","OBJECT_ID":"2025-301M","EPOCH":"2026-07-21T01:52:31.705536","CLASSIFICATION_TYPE":"U","MEAN_MOTION":14.76354709,"ECCENTRICITY":0.00016205,"INCLINATION":51.8981,"RA_OF_ASC_NODE":159.8316,"ARG_OF_PERICENTER":17.0924,"MEAN_ANOMALY":343.0091,"EPHEMERIS_TYPE":0,"NORAD_CAT_ID":67144,"ELEMENT_SET_NO":999,"REV_AT_EPOCH":3398,"BSTAR":0.00024233643,"MEAN_MOTION_DOT":0.00001483,"MEAN_MOTION_DDOT":0},{"OBJECT_NAME":"KUIPER-00204","OBJECT_ID":"2025-301N","EPOCH":"2026-07-21T04:29:23.539200","CLASSIFICATION_TYPE":"U","MEAN_MOTION":14.79942893,"ECCENTRICITY":0.00007057,"INCLINATION":51.9008,"RA_OF_ASC_NODE":175.3085,"ARG_OF_PERICENTER":35.9441,"MEAN_ANOMALY":324.1569,"EPHEMERIS_TYPE":0,"NORAD_CAT_ID":67145,"ELEMENT_SET_NO":999,"REV_AT_EPOCH":3389,"BSTAR":0.00027785952,"MEAN_MOTION_DOT":0.00001898,"MEAN_MOTION_DDOT":0},{"OBJECT_NAME":"KUIPER-00210","OBJECT_ID":"2025-301P","EPOCH":"2026-07-21T07:01:07.473504","CLASSIFICATION_TYPE":"U","MEAN_MOTION":14.7994905,"ECCENTRICITY":0.00004257,"INCLINATION":51.8982,"RA_OF_ASC_NODE":202.3084,"ARG_OF_PERICENTER":52.6934,"MEAN_ANOMALY":307.4067,"EPHEMERIS_TYPE":0,"NORAD_CAT_ID":67146,"ELEMENT_SET_NO":999,"REV_AT_EPOCH":3358,"BSTAR":0.00023973702,"MEAN_MOTION_DOT":0.00001608,"MEAN_MOTION_DDOT":0},{"OBJECT_NAME":"KUIPER-00221","OBJECT_ID":"2025-301Q","EPOCH":"2026-07-21T07:38:07.786752","CLASSIFICATION_TYPE":"U","MEAN_MOTION":14.79941584,"ECCENTRICITY":0.00004339,"INCLINATION":51.901,"RA_OF_ASC_NODE":209.7223,"ARG_OF_PERICENTER":47.2649,"MEAN_ANOMALY":312.835,"EPHEMERIS_TYPE":0,"NORAD_CAT_ID":67147,"ELEMENT_SET_NO":999,"REV_AT_EPOCH":3331,"BSTAR":0.00023593405,"MEAN_MOTION_DOT":0.00001578,"MEAN_MOTION_DDOT":0},{"OBJECT_NAME":"KUIPER-00232","OBJECT_ID":"2025-301R","EPOCH":"2026-07-21T03:58:21.139680","CLASSIFICATION_TYPE":"U","MEAN_MOTION":14.7993513,"ECCENTRICITY":0.00004097,"INCLINATION":51.8985,"RA_OF_ASC_NODE":195.4186,"ARG_OF_PERICENTER":46.6462,"MEAN_ANOMALY":313.4535,"EPHEMERIS_TYPE":0,"NORAD_CAT_ID":67148,"ELEMENT_SET_NO":999,"REV_AT_EPOCH":3349,"BSTAR":0.00025158384,"MEAN_MOTION_DOT":0.00001697,"MEAN_MOTION_DDOT":0},{"OBJECT_NAME":"KUIPER-00241","OBJECT_ID":"2025-301S","EPOCH":"2026-07-21T01:16:57.694656","CLASSIFICATION_TYPE":"U","MEAN_MOTION":14.79929614,"ECCENTRICITY":0.00004699,"INCLINATION":51.9015,"RA_OF_ASC_NODE":205.9155,"ARG_OF_PERICENTER":73.785,"MEAN_ANOMALY":286.3164,"EPHEMERIS_TYPE":0,"NORAD_CAT_ID":67149,"ELEMENT_SET_NO":999,"REV_AT_EPOCH":3367,"BSTAR":0.00022695349,"MEAN_MOTION_DOT":0.00001509,"MEAN_MOTION_DDOT":0},{"OBJECT_NAME":"KUIPER-00245","OBJECT_ID":"2025-301T","EPOCH":"2026-07-21T05:57:01.994400","CLASSIFICATION_TYPE":"U","MEAN_MOTION":14.79938929,"ECCENTRICITY":0.0000316,"INCLINATION":51.9018,"RA_OF_ASC_NODE":212.5672,"ARG_OF_PERICENTER":61.1676,"MEAN_ANOMALY":298.9318,"EPHEMERIS_TYPE":0,"NORAD_CAT_ID":67150,"ELEMENT_SET_NO":999,"REV_AT_EPOCH":3326,"BSTAR":0.0002379609,"MEAN_MOTION_DOT":0.00001594,"MEAN_MOTION_DDOT":0},{"OBJECT_NAME":"KUIPER-00246","OBJECT_ID":"2025-301U","EPOCH":"2026-07-21T08:46:08.389632","CLASSIFICATION_TYPE":"U","MEAN_MOTION":14.7994827,"ECCENTRICITY":0.00003897,"INCLINATION":51.8997,"RA_OF_ASC_NODE":196.997,"ARG_OF_PERICENTER":66.3298,"MEAN_ANOMALY":293.7705,"EPHEMERIS_TYPE":0,"NORAD_CAT_ID":67151,"ELEMENT_SET_NO":999,"REV_AT_EPOCH":3351,"BSTAR":0.00025280832,"MEAN_MOTION_DOT":0.00001707,"MEAN_MOTION_DDOT":0},{"OBJECT_NAME":"KUIPER-00247","OBJECT_ID":"2025-301V","EPOCH":"2026-07-21T09:01:43.356864","CLASSIFICATION_TYPE":"U","MEAN_MOTION":14.79943066,"ECCENTRICITY":0.00003901,"INCLINATION":51.8963,"RA_OF_ASC_NODE":186.9183,"ARG_OF_PERICENTER":73.4804,"MEAN_ANOMALY":286.6201,"EPHEMERIS_TYPE":0,"NORAD_CAT_ID":67152,"ELEMENT_SET_NO":999,"REV_AT_EPOCH":3363,"BSTAR":0.00025670772,"MEAN_MOTION_DOT":0.00001737,"MEAN_MOTION_DDOT":0},{"OBJECT_NAME":"KUIPER-00248","OBJECT_ID":"2025-301W","EPOCH":"2026-07-21T14:20:28.130784","CLASSIFICATION_TYPE":"U","MEAN_MOTION":14.79922074,"ECCENTRICITY":0.00008352,"INCLINATION":51.8982,"RA_OF_ASC_NODE":168.57,"ARG_OF_PERICENTER":76.4157,"MEAN_ANOMALY":283.6898,"EPHEMERIS_TYPE":0,"NORAD_CAT_ID":67153,"ELEMENT_SET_NO":999,"REV_AT_EPOCH":3407,"BSTAR":0.00030502819,"MEAN_MOTION_DOT":0.00002104,"MEAN_MOTION_DDOT":0},{"OBJECT_NAME":"KUIPER-00249","OBJECT_ID":"2025-301X","EPOCH":"2026-07-21T05:51:02.522880","CLASSIFICATION_TYPE":"U","MEAN_MOTION":14.79964237,"ECCENTRICITY":0.00005578,"INCLINATION":51.8989,"RA_OF_ASC_NODE":185.0643,"ARG_OF_PERICENTER":53.8102,"MEAN_ANOMALY":306.2912,"EPHEMERIS_TYPE":0,"NORAD_CAT_ID":67154,"ELEMENT_SET_NO":999,"REV_AT_EPOCH":3364,"BSTAR":0.00064538107,"MEAN_MOTION_DOT":0.00004706,"MEAN_MOTION_DDOT":0},{"OBJECT_NAME":"KUIPER-00250","OBJECT_ID":"2025-301Y","EPOCH":"2026-07-21T09:30:56.034432","CLASSIFICATION_TYPE":"U","MEAN_MOTION":14.79935392,"ECCENTRICITY":0.00004939,"INCLINATION":51.8973,"RA_OF_ASC_NODE":199.3436,"ARG_OF_PERICENTER":64.1362,"MEAN_ANOMALY":295.9651,"EPHEMERIS_TYPE":0,"NORAD_CAT_ID":67155,"ELEMENT_SET_NO":999,"REV_AT_EPOCH":3349,"BSTAR":0.00025420769,"MEAN_MOTION_DOT":0.00001717,"MEAN_MOTION_DDOT":0},{"OBJECT_NAME":"KUIPER-00251","OBJECT_ID":"2025-301Z","EPOCH":"2026-07-21T04:58:38.880480","CLASSIFICATION_TYPE":"U","MEAN_MOTION":14.79941294,"ECCENTRICITY":0.00007037,"INCLINATION":51.8993,"RA_OF_ASC_NODE":187.749,"ARG_OF_PERICENTER":40.256,"MEAN_ANOMALY":319.8455,"EPHEMERIS_TYPE":0,"NORAD_CAT_ID":67156,"ELEMENT_SET_NO":999,"REV_AT_EPOCH":3379,"BSTAR":0.00026016499,"MEAN_MOTION_DOT":0.00001763,"MEAN_MOTION_DDOT":0},{"OBJECT_NAME":"KUIPER-00252","OBJECT_ID":"2025-301AA","EPOCH":"2026-07-21T03:17:30.256800","CLASSIFICATION_TYPE":"U","MEAN_MOTION":14.7994187,"ECCENTRICITY":0.00005082,"INCLINATION":51.8994,"RA_OF_ASC_NODE":190.51,"ARG_OF_PERICENTER":52.5292,"MEAN_ANOMALY":307.5716,"EPHEMERIS_TYPE":0,"NORAD_CAT_ID":67157,"ELEMENT_SET_NO":999,"REV_AT_EPOCH":3356,"BSTAR":0.00026336313,"MEAN_MOTION_DOT":0.00001788,"MEAN_MOTION_DDOT":0},{"OBJECT_NAME":"KUIPER-00261","OBJECT_ID":"2025-301AB","EPOCH":"2026-07-21T07:05:04.320096","CLASSIFICATION_TYPE":"U","MEAN_MOTION":14.79932459,"ECCENTRICITY":0.00004232,"INCLINATION":51.9014,"RA_OF_ASC_NODE":199.8659,"ARG_OF_PERICENTER":57.7781,"MEAN_ANOMALY":302.3223,"EPHEMERIS_TYPE":0,"NORAD_CAT_ID":67158,"ELEMENT_SET_NO":999,"REV_AT_EPOCH":3344,"BSTAR":0.00024433587,"MEAN_MOTION_DOT":0.00001642,"MEAN_MOTION_DDOT":0}]}
